[{"OBJECT_NAME":"STARLINK-4216","OBJECT_ID":"2022-076AN","EPOCH":"2026-03-09T06:45:49.992768","MEAN_MOTION":15.08834943,"ECCENTRICITY":0.0001268,"INCLINATION":53.2168,"RA_OF_ASC_NODE":85.9525,"ARG_OF_PERICENTER":89.9874,"MEAN_ANOMALY":270.1264,"EPHEMERIS_TYPE":0,"CLASSIFICATION_TYPE":"U","NORAD_CAT_ID":53022,"ELEMENT_SET_NO":999,"REV_AT_EPOCH":20292,"BSTAR":6.394333e-6,"MEAN_MOTION_DOT":-1.86e-6,"MEAN_MOTION_DDOT":0},{"OBJECT_NAME":"CZ-6A DEB","OBJECT_ID":"2024-140BZ","EPOCH":"2026-03-09T14:49:21.592992","MEAN_MOTION":14.79384468,"ECCENTRICITY":0.0146889,"INCLINATION":88.732,"RA_OF_ASC_NODE":260.453,"ARG_OF_PERICENTER":155.7611,"MEAN_ANOMALY":205.0618,"EPHEMERIS_TYPE":0,"CLASSIFICATION_TYPE":"U","NORAD_CAT_ID":60672,"ELEMENT_SET_NO":999,"REV_AT_EPOCH":8505,"BSTAR":0.0010732,"MEAN_MOTION_DOT":9.637e-5,"MEAN_MOTION_DDOT":0}]
